satname,norad_id,inclination_deg,eccentricity,mean_motion_rev_per_day,perigee_km,apogee_km,l1,l2
STARLINK-1168,45072,53.0526,0.0001221,15.0639062,546.3947178673689,548.0858950056017,1 45072U 20006AE  25304.74869226  .00004307  00000+0  30792-3 0  9991,2 45072  53.0526 125.4551 0001221  71.6664 288.4458 15.06390620317305
STARLINK-1172,45074,53.0535,0.0001468,15.06403425,546.1844211991283,548.2177004537862,1 45074U 20006AG  25304.75973182  .00001067  00000+0  90490-4 0  9993,2 45074  53.0535 125.4103 0001468  92.7696 267.3461 15.06403425317300
STARLINK-1153,45080,53.052,0.0001566,15.0641414,546.0837184161564,548.2527240114405,1 45080U 20006AN  25304.80396094  .00002825  00000+0  20837-3 0  9997,2 45080  53.0520 125.2079 0001566  86.9376 273.1792 15.06414140317319
STARLINK-1151,45081,53.0529,0.0001528,15.06382869,546.2058612011888,548.3222637658828,1 45081U 20006AP  25304.78925145  .00004091  00000+0  29352-3 0  9998,2 45081  53.0529 125.3495 0001528  97.3229 262.7933 15.06382869317316
STARLINK-1190,45083,53.0391,0.0003375,15.90576607,298.4141663088376,302.9223598614208,1 45083U 20006AR  25304.91668980  .00306363  45846-4  98014-3 0  9996,2 45083  53.0391  75.1873 0003375 274.0430 170.6346 15.90576607  6056
STARLINK-1185,45087,53.0539,0.0001228,15.06406541,546.3410804467694,548.0419411290186,1 45087U 20006AV  25304.76525279  .00000503  00000+0  52621-4 0  9996,2 45087  53.0539 105.3826 0001228 102.1742 257.9384 15.06406541317591
STARLINK-1183,45088,53.0529,0.0001197,15.06404865,546.3676850164939,548.0256098916943,1 45088U 20006AW  25304.72102556  .00001678  00000+0  13147-3 0  9995,2 45088  53.0529 105.5804 0001197  87.5613 272.5513 15.06404865317580
STARLINK-1176,45090,53.0373,0.0007833,16.22542166,207.49608482613712,217.82122529935805,1 45090U 20006AY  25304.72916759  .02324984  11905-4  95091-3 0  9995,2 45090  53.0373  33.5580 0007833 356.1138   3.9839 16.22542166318596
STARLINK-1142,45093,53.0341,0.000447,15.61634308,379.9136218256999,385.95802092801114,1 45093U 20006BB  25304.91668980  .00140674  00000+0  15825-2 0  9994,2 45093  53.0341  37.8094 0004470 347.7866  65.5766 15.61634308  5968
STARLINK-1152,45096,53.0499,0.0006858,15.2393612,489.2690199418257,498.69481825125877,1 45096U 20006BE  25304.78886066  .00036216  00000+0  14844-2 0  9995,2 45096  53.0499  87.4544 0006858 167.3208 192.7962 15.23936120317843
STARLINK-1184,45098,53.055,0.0001458,15.06402686,546.193611127871,548.2130403668598,1 45098U 20006BG  25304.80211385  .00000791  00000+0  71965-4 0  9994,2 45098  53.0550 105.2149 0001458  92.2102 267.9054 15.06402686317598
STARLINK-1193,45100,53.0527,0.0002148,15.06380995,545.7822287564886,548.7573835204057,1 45100U 20006BJ  25304.79844951  .00006458  00000+0  45228-3 0  9995,2 45100  53.0527 105.2308 0002148  92.0894 268.0341 15.06380995317595
STARLINK-1143,45179,53.053,0.0008791,15.40736874,437.93601631850925,449.93058031701094,1 45179U 20012B   25304.77685536  .00075415  00000+0  18068-2 0  9998,2 45179  53.0530 228.9555 0008791  55.4468 304.7365 15.40736874315920
STARLINK-1202,45183,53.0554,0.0001478,15.06374913,546.2648691660816,548.3120249282283,1 45183U 20012F   25304.79475750 -.00003535  00000+0 -21872-3 0  9994,2 45183  53.0554 265.2535 0001478  95.5744 264.5413 15.06374913315415
STARLINK-1216,45185,53.055,0.0001334,15.06402202,546.2809685363063,548.1286497309829,1 45185U 20012H   25304.19024542 -.00001479  00000+0 -80443-4 0  9994,2 45185  53.0550 267.9639 0001334  95.8011 264.3130 15.06402202315268
STARLINK-1225,45187,53.0529,0.0001173,15.06400441,546.3978631098189,548.0225495644263,1 45187U 20012K   25304.60676225  .00002137  00000+0  16229-3 0  9993,2 45187  53.0529 266.0926 0001173  78.5796 281.5325 15.06400441315376
STARLINK-1230,45189,53.0555,0.0001582,15.06413993,546.0730883833457,548.2642550978853,1 45189U 20012M   25304.14601530  .00003610  00000+0  26105-3 0  9992,2 45189  53.0555 268.1659 0001582  95.6723 264.4447 15.06413993312533
STARLINK-1234,45190,53.0531,0.0002729,15.36028854,456.00067630058584,459.73176685892304,1 45190U 20012N   25304.80393509  .00064948  00000+0  18196-2 0  9992,2 45190  53.0531 222.1499 0002729 101.6114 258.5194 15.36028854315916
STARLINK-1269,45197,53.0539,0.0001445,15.06402742,546.2024424636757,548.2038657682142,1 45197U 20012V   25304.22342551  .00001711  00000+0  13375-3 0  9990,2 45197  53.0539 267.8186 0001445  84.9853 275.1301 15.06402742315292
STARLINK-1154,45198,53.0532,0.0001492,15.06396252,546.1897813235637,548.2563087610051,1 45198U 20012W   25304.67864104  .00000974  00000+0  84252-4 0  9996,2 45198  53.0532 245.7722 0001492  86.7488 273.3671 15.06396252315617
STARLINK-1199,45201,53.054,0.0002068,15.06386229,545.821593581345,548.6859352014972,1 45201U 20012Z   25304.82239556 -.00003077  00000+0 -18781-3 0  9997,2 45201  53.0540 245.1301 0002068  89.0370 271.0856 15.06386229315695
STARLINK-1209,45206,53.0532,0.0001779,15.30179959,474.0556869074171,476.49413086459754,1 45206U 20012AE  25304.79866395  .00011356  00000+0  39519-3 0  9994,2 45206  53.0532 222.7876 0001779  98.3344 261.7857 15.30179959315055
STARLINK-1210,45207,53.0239,0.0012917,15.56439366,389.2190951015382,406.724494562106,1 45207U 20012AF  25304.82475466  .00107057  00000+0  14692-2 0  9992,2 45207  53.0239 184.8353 0012917  66.9718 293.2654 15.56439366316549
STARLINK-1231,45212,53.05,0.0006418,15.12350787,524.6000605682639,533.4661040859382,1 45212U 20012AL  25304.57224490  .00048042  00000+0  27368-2 0  9991,2 45212  53.0500 244.5845 0006418  46.9612 313.1916 15.12350787315639
STARLINK-1271,45217,53.0549,0.0001948,15.06408111,545.8376459464507,548.5357520595826,1 45217U 20012AR  25304.54226273 -.00001454  00000+0 -78679-4 0  9995,2 45217  53.0549 246.3832 0001948  89.1525 270.9687 15.06408111315653
STARLINK-1191,45222,53.0544,0.0001504,15.06372056,546.2556182933358,548.3387889017786,1 45222U 20012AW  25304.81686440 -.00017669  00000+0 -11711-2 0  9994,2 45222  53.0544 225.1514 0001504  99.3616 260.7543 15.06372056315979
STARLINK-1212,45223,53.0556,0.000156,15.06400176,546.1306642327881,548.2913728145677,1 45223U 20012AX  25304.50364323  .00002154  00000+0  16348-3 0  9997,2 45223  53.0556 227.2127 0001560  84.7677 275.3490 15.06400176315926
STARLINK-1215,45225,53.0538,0.0001624,15.0642207,546.0192517717787,548.2685830137489,1 45225U 20012AZ  25304.06124715  .00019680  00000+0  13356-2 0  9996,2 45225  53.0538 228.5431 0001624  80.0492 280.0680 15.06422070315814
STARLINK-1221,45227,53.0662,0.0002197,15.36738366,454.2605305532652,457.2633457466882,1 45227U 20012BB  25304.84000733  .00016180  00000+0  45395-3 0  9998,2 45227  53.0662 157.8037 0002197 356.6995   3.3993 15.36738366316866
STARLINK-1222,45228,53.0543,0.0001583,15.06403431,546.104761425273,548.2973234495084,1 45228U 20012BC  25304.49249800  .00003390  00000+0  24632-3 0  9990,2 45228  53.0543 226.6070 0001583  89.2945 270.8226 15.06403431315812
STARLINK-1226,45229,53.0532,0.0001433,15.06437537,546.1041288658225,548.088900791171,1 45229U 20012BD  25304.52197904  .00016979  00000+0  11548-2 0  9990,2 45229  53.0532 226.4740 0001433  83.5922 276.5230 15.06437537315822
STARLINK-1227,45230,53.0549,0.0001516,15.06388281,546.1975869318367,548.297363504722,1 45230U 20012BE  25304.78369981 -.00015274  00000+0 -10090-2 0  9996,2 45230  53.0549 225.2997 0001516 107.0665 253.0490 15.06388281315987
STARLINK-1246,45235,53.0536,0.0001651,15.0639561,546.0816354203826,548.3683899569724,1 45235U 20012BK  25304.86478705 -.00001094  00000+0 -54580-4 0  9994,2 45235  53.0536 264.9388 0001651 100.5101 259.6074 15.06395610315440
STARLINK-1270,45237,53.0534,0.0001435,15.06429651,546.1269089068337,548.1144578619651,1 45237U 20012BM  25304.07230544  .00021408  00000+0  14505-2 0  9996,2 45237  53.0534 228.4931 0001435  90.8893 269.2261 15.06429651315862
STARLINK-1279,45360,53.0529,0.0002043,15.33964255,462.60082443148895,465.3965210673741,1 45360U 20019A   25304.84271703  .00068122  00000+0  20368-2 0  9995,2 45360  53.0529 352.3953 0002043  24.7876 335.3222 15.33964255310756
STARLINK-1301,45361,53.0526,0.0001883,15.36403895,455.46670653754427,458.04072638136404,1 45361U 20019B   25304.74030582  .00067545  00000+0  18688-2 0  9993,2 45361  53.0526   2.5993 0001883  28.8551 331.2555 15.36403895310618
STARLINK-1306,45362,53.0467,0.0006504,15.69255589,356.64426200370326,365.41056707413554,1 45362U 20019C   25304.91668980  .00164307  00000+0  13583-2 0  9995,2 45362  53.0467 351.8380 0006504 303.4106 114.3985 15.69255589  5996
STARLINK-1262,45366,53.0559,0.000163,15.06421042,546.0182466864826,548.2758892926468,1 45366U 20019G   25304.64729231  .00009144  00000+0  63159-3 0  9998,2 45366  53.0559  25.9066 0001630 107.7807 252.3359 15.06421042310289
STARLINK-1273,45367,53.0554,0.0001528,15.06417661,546.0992450568456,548.2156150346664,1 45367U 20019H   25304.66940954  .00003279  00000+0  23879-3 0  9996,2 45367  53.0554  25.8122 0001528 107.2564 252.8592 15.06417661310284
STARLINK-1276,45368,53.0555,0.0001598,15.06421287,546.039656843358,548.2529773915094,1 45368U 20019J   25304.63993022  .00013310  00000+0  91022-3 0  9990,2 45368  53.0555  25.9446 0001598  85.8662 274.2510 15.06421287310280
STARLINK-1277,45369,53.0556,0.0001305,15.06399932,546.308008334483,548.1155243624999,1 45369U 20019K   25304.49994372 -.00002712  00000+0 -16321-3 0  9999,2 45369  53.0556  27.1997 0001305  98.2513 261.8624 15.06399932310252
STARLINK-1281,45370,53.0602,0.0001996,15.06415636,545.7813462577869,548.5459262717832,1 45370U 20019L   25304.49616900  .00002816  00000+0  20778-3 0  9993,2 45370  53.0602  26.5867 0001996 116.4572 243.6622 15.06415636310266
STARLINK-1300,45374,53.0549,0.0001679,15.06460575,545.8631756559962,548.1886453613461,1 45374U 20019Q   25304.65098299  .00018305  00000+0  12426-2 0  9990,2 45374  53.0549  25.8935 0001679  84.7894 275.3286 15.06460575310282
